JILIN-1 03              
1 41914U 17002B   26196.96975615  .00008187  00000+0  19229-3 0  9990
2 41914  97.1947 203.6621 0007856  77.3706 282.8420 15.42243783526293
CARTOSAT-2D             
1 41948U 17008A   26196.94088560  .00000824  00000+0  42242-4 0  9997
2 41948  97.4095 255.7066 0006067 135.7691 224.4030 15.19285465521946
CARTOSAT-2E             
1 42767U 17036C   26196.95866749  .00001776  00000+0  87474-4 0  9995
2 42767  97.4263 256.2840 0003295 185.8595 174.2602 15.19257364502514
IRIDIUM 113             
1 42803U 17039A   26196.84545317  .00000032  00000+0  42854-5 0  9990
2 42803  86.3991 310.2010 0002120  91.4180 268.7258 14.34217374475291
NORSAT 2                
1 42828U 17042D   26196.95178463  .00005633  00000+0  24637-3 0  9996
2 42828  97.4052   9.9486 0008195 315.0626  44.9946 15.22435930492112
TECHNOSAT               
1 42829U 17042E   26196.97085166  .00001609  00000+0  11691-3 0  9991
2 42829  97.4318 353.5406 0017356   1.0306 359.0953 15.05113833491038
FLYING LAPTOP           
1 42831U 17042G   26196.97986799  .00001986  00000+0  15820-3 0  9992
2 42831  97.4805 351.4297 0019668  30.0064 330.2284 15.01316232490770
WNISAT 1R               
1 42835U 17042L   26196.94175086  .00000398  00000+0  34901-4 0  9990
2 42835  97.4820 352.0369 0010771  62.4334 297.7984 15.01859216490827
LEMUR-2-GREENBERG       
1 42837U 17042N   26196.96125073  .00009612  00000+0  31169-3 0  9995
2 42837  97.3828  17.4724 0007243 256.0810 103.9626 15.32167939492790
LEMUR-2-FURIAUS         
1 42840U 17042R   26196.45186691  .00010036  00000+0  33596-3 0  9994
2 42840  97.3774  14.8562 0006060 329.0574  31.0309 15.31136141492530
CORVUS BC2              
1 42846U 17042X   26196.69162837  .00001182  00000+0  84008-4 0  9999
2 42846  97.4091 356.9404 0013404  21.4439 338.7347 15.06458015491354
CORVUS BC1              
1 42847U 17042Y   26196.68310269  .00001325  00000+0  93353-4 0  9995
2 42847  97.4121 357.7647 0011603 358.4430   1.6759 15.06621102491385
VRSS-2                  
1 42954U 17060A   26196.96484669 -.00000055  00000+0 -65384-6 0  9997
2 42954  97.6498 233.3939 0017422  11.2485 348.9115 14.81237109472716
MOHAMMED VI-A           
1 43005U 17070A   26196.93347134 -.00000074  00000+0 -33548-5 0  9995
2 43005  97.9554 268.8671 0001206  94.0177 266.1171 14.77101834468220
FENGYUN 3D              
1 43010U 17072A   26196.90101493  .00000049  00000+0  45032-4 0  9996
2 43010  99.0140 171.8448 0001478  12.3918 347.7294 14.19745145449060
NOAA 20 (JPSS-1)        
1 43013U 17073A   26196.90069938  .00000002  00000+0  21743-4 0  9999
2 43013  98.7772 136.1089 0001411 124.0074 236.1236 14.19516508448544
MAKERSAT 0              
1 43016U 17073D   26196.90866996  .00012107  00000+0  31974-3 0  9996
2 43016  97.4576  79.6633 0105467 169.7172 190.6262 15.33023791470869
RADFXSAT (FOX-1B)       
1 43017U 17073E   26196.31745535  .00004345  00000+0  19078-3 0  9993
2 43017  97.4665  62.9591 0148269 231.0626 127.7313 15.13061529469642
JILIN-1 04              
1 43022U 17074A   26196.94849810  .00008379  00000+0  19118-3 0  9996
2 43022  97.4883 307.3449 0005240  98.1303 262.0539 15.43144043478709
JILIN-1 05              
1 43023U 17074B   26196.95159142  .00004677  00000+0  14330-3 0  9998
2 43023  97.4886 303.5053 0006489 122.5637 237.6233 15.34292556478410
JILIN-1 06              
1 43024U 17074C   26196.92763878  .00003386  00000+0  10533-3 0  9990
2 43024  97.4811 300.4519 0008126 131.8896 228.3041 15.34000972478246
IRIDIUM 116             
1 43072U 17083C   26196.82008187  .00000135  00000+0  41009-4 0  9999
2 43072  86.3986 310.0322 0002460  98.2597 261.8878 14.34217958448270
IRIDIUM 130             
1 43073U 17083D   26196.85814119  .00000136  00000+0  41435-4 0  9997
2 43073  86.3993 310.2943 0002271 100.5072 259.6380 14.34218104448227
LKW-2                   
1 43080U 17084A   26196.93633435  .00003163  00000+0  12310-3 0  9997
2 43080  97.1174 235.3921 0003671 116.6747 243.4868 15.26694377476079
SUPERVIEW-1 03          
1 43099U 18002A   26196.95521293  .00010653  00000+0  25695-3 0  9990
2 43099  97.3133 281.7664 0046884  78.4782 282.1723 15.40230456472797
CARTOSAT-2F             
1 43111U 18004A   26196.99124639  .00000102  00000+0  80798-5 0  9999
2 43111  97.4774 256.3421 0002366 130.1455 229.9987 15.19171951471704
LKW-3                   
1 43146U 18006A   26196.98785189  .00006667  00000+0  19415-3 0  9999
2 43146  97.6630 358.7021 0003013 177.3237 182.8023 15.35759097473137
ASNARO-2                
1 43152U 18007A   26196.84323348  .00004899  00000+0  21486-3 0  9993
2 43152  97.3971 203.3229 0001895  93.6326 266.5127 15.22431786471770
