OBJECT_NAME,OBJECT_ID,EPOCH,MEAN_MOTION,ECCENTRICITY,INCLINATION,RA_OF_ASC_NODE,ARG_OF_PERICENTER,MEAN_ANOMALY,EPHEMERIS_TYPE,CLASSIFICATION_TYPE,NORAD_CAT_ID,ELEMENT_SET_NO,REV_AT_EPOCH,BSTAR,MEAN_MOTION_DOT,MEAN_MOTION_DDOT
JILIN-1 03,2017-002B,2026-07-15T23:16:26.931360,15.42243783,.00078567,97.1947,203.6621,77.3706,282.8420,0,U,41914,999,52629,.19228803E-3,.8187E-4,0
CARTOSAT-2D,2017-008A,2026-07-15T22:34:52.515840,15.19285465,.00060671,97.4095,255.7066,135.7691,224.4030,0,U,41948,999,52194,.42241954E-4,.824E-5,0
CARTOSAT-2E,2017-036C,2026-07-15T23:00:28.871136,15.19257364,.00032952,97.4263,256.2840,185.8595,174.2602,0,U,42767,999,50251,.87473689E-4,.1776E-4,0
IRIDIUM 113,2017-039A,2026-07-15T20:17:27.153888,14.34217374,.00021205,86.3991,310.2010,91.4180,268.7258,0,U,42803,999,47529,.4285378E-5,.32E-6,0
NORSAT 2,2017-042D,2026-07-15T22:50:34.192032,15.22435930,.00081952,97.4052,9.9486,315.0626,44.9946,0,U,42828,999,49211,.24637138E-3,.5633E-4,0
TECHNOSAT,2017-042E,2026-07-15T23:18:01.583424,15.05113833,.00173567,97.4318,353.5406,1.0306,359.0953,0,U,42829,999,49103,.11691033E-3,.1609E-4,0
FLYING LAPTOP,2017-042G,2026-07-15T23:31:00.594336,15.01316232,.00196688,97.4805,351.4297,30.0064,330.2284,0,U,42831,999,49077,.15819555E-3,.1986E-4,0
WNISAT 1R,2017-042L,2026-07-15T22:36:07.274304,15.01859216,.00107717,97.4820,352.0369,62.4334,297.7984,0,U,42835,999,49082,.34900698E-4,.398E-5,0
LEMUR-2-GREENBERG,2017-042N,2026-07-15T23:04:12.063072,15.32167939,.00072432,97.3828,17.4724,256.0810,103.9626,0,U,42837,999,49279,.31169196E-3,.9612E-4,0
LEMUR-2-FURIAUS,2017-042R,2026-07-15T10:50:41.301024,15.31136141,.00060603,97.3774,14.8562,329.0574,31.0309,0,U,42840,999,49253,.33596338E-3,.10036E-3,0
CORVUS BC2,2017-042X,2026-07-15T16:35:56.691168,15.06458015,.0013404,97.4091,356.9404,21.4439,338.7347,0,U,42846,999,49135,.8400815E-4,.1182E-4,0
CORVUS BC1,2017-042Y,2026-07-15T16:23:40.072416,15.06621102,.00116033,97.4121,357.7647,358.4430,1.6759,0,U,42847,999,49138,.93353002E-4,.1325E-4,0
VRSS-2,2017-060A,2026-07-15T23:09:22.754016,14.81237109,.00174229,97.6498,233.3939,11.2485,348.9115,0,U,42954,999,47271,-.653839E-6,-.55E-6,0
MOHAMMED VI-A,2017-070A,2026-07-15T22:24:11.923776,14.77101834,.00012067,97.9554,268.8671,94.0177,266.1171,0,U,43005,999,46822,-.3354845E-5,-.74E-6,0
FENGYUN 3D,2017-072A,2026-07-15T21:37:27.689952,14.19745145,.00014782,99.0140,171.8448,12.3918,347.7294,0,U,43010,999,44906,.45032285E-4,.49E-6,0
NOAA 20 (JPSS-1),2017-073A,2026-07-15T21:37:00.426432,14.19516508,.00014115,98.7772,136.1089,124.0074,236.1236,0,U,43013,999,44854,.21742794E-4,.2E-7,0
MAKERSAT 0,2017-073D,2026-07-15T21:48:29.084544,15.33023791,.01054678,97.4576,79.6633,169.7172,190.6262,0,U,43016,999,47086,.31973976E-3,.12107E-3,0
RADFXSAT (FOX-1B),2017-073E,2026-07-15T07:37:08.142240,15.13061529,.01482696,97.4665,62.9591,231.0626,127.7313,0,U,43017,999,46964,.1907758E-3,.4345E-4,0
JILIN-1 04,2017-074A,2026-07-15T22:45:50.235840,15.43144043,.000524,97.4883,307.3449,98.1303,262.0539,0,U,43022,999,47870,.19118046E-3,.8379E-4,0
JILIN-1 05,2017-074B,2026-07-15T22:50:17.498688,15.34292556,.00064897,97.4886,303.5053,122.5637,237.6233,0,U,43023,999,47841,.14329579E-3,.4677E-4,0
JILIN-1 06,2017-074C,2026-07-15T22:15:47.990592,15.34000972,.00081263,97.4811,300.4519,131.8896,228.3041,0,U,43024,999,47824,.10532697E-3,.3386E-4,0
IRIDIUM 116,2017-083C,2026-07-15T19:40:55.073568,14.34217958,.00024607,86.3986,310.0322,98.2597,261.8878,0,U,43072,999,44827,.41009103E-4,.135E-5,0
IRIDIUM 130,2017-083D,2026-07-15T20:35:43.398816,14.34218104,.00022714,86.3993,310.2943,100.5072,259.6380,0,U,43073,999,44822,.41435203E-4,.136E-5,0
LKW-2,2017-084A,2026-07-15T22:28:19.287840,15.26694377,.00036716,97.1174,235.3921,116.6747,243.4868,0,U,43080,999,47607,.12309734E-3,.3163E-4,0
SUPERVIEW-1 03,2018-002A,2026-07-15T22:55:30.397152,15.40230456,.0046884,97.3133,281.7664,78.4782,282.1723,0,U,43099,999,47279,.25694662E-3,.10653E-3,0
CARTOSAT-2F,2018-004A,2026-07-15T23:47:23.688096,15.19171951,.00023666,97.4774,256.3421,130.1455,229.9987,0,U,43111,999,47170,.8079755E-5,.102E-5,0
LKW-3,2018-006A,2026-07-15T23:42:30.403296,15.35759097,.00030139,97.6630,358.7021,177.3237,182.8023,0,U,43146,999,47313,.19414693E-3,.6667E-4,0
ASNARO-2,2018-007A,2026-07-15T20:14:15.372672,15.22431786,.00018959,97.3971,203.3229,93.6326,266.5127,0,U,43152,999,47177,.21485607E-3,.4899E-4,0
